     3.04           N: GNSS NAV DATA    G: GPS              RINEX VERSION / TYPE
sbf2rin-16.2.0                          20260417 131309 UTC PGM / RUN BY / DATE 
GPSA   1.5832E-08  1.4901E-08 -1.1921E-07 -1.1921E-07       IONOSPHERIC CORR    
GPSB   1.0650E+05  6.5536E+04 -1.9661E+05 -1.9661E+05       IONOSPHERIC CORR    
GPUT -3.7252902985E-09-2.664535259E-15 503808 2414          TIME SYSTEM CORR    
    18                                                      LEAP SECONDS        
                                                            END OF HEADER       
G04 2026 04 16 10 00 00 5.351519212127E-05 1.477928890381E-12 0.000000000000E+00
     2.060000000000E+02 2.740625000000E+01 4.795556897051E-09-5.700639411085E-01
     1.503154635429E-06 3.724350943230E-03 3.853812813759E-06 5.153704847336E+03
     3.816000000000E+05 4.656612873077E-08-1.841888594967E+00 2.607703208923E-08
     9.707087950605E-01 3.076250000000E+02-2.869364050633E+00-8.376063182367E-09
     3.546576300567E-10 1.000000000000E+00 2.414000000000E+03 0.000000000000E+00
     2.000000000000E+00 0.000000000000E+00-4.656612873077E-09 2.060000000000E+02
     3.787980000000E+05 4.000000000000E+00
G05 2026 04 16 10 00 00-2.318010665476E-04-4.547473508865E-13 0.000000000000E+00
     1.800000000000E+01 1.818750000000E+01 3.700154126271E-09 9.756777938107E-02
     1.048669219017E-06 5.499931983650E-03 1.296587288380E-05 5.153730869293E+03
     3.816000000000E+05-2.104789018631E-07-2.971661752840E+00 2.980232238770E-08
     9.807093264571E-01 1.422812500000E+02 1.421775458358E+00-7.643532669530E-09
     4.353752779850E-10 1.000000000000E+00 2.414000000000E+03 0.000000000000E+00
     2.000000000000E+00 0.000000000000E+00-1.071020960808E-08 1.800000000000E+01
     3.789480000000E+05 4.000000000000E+00
G07 2026 04 16 11 59 28-1.738234423101E-04-4.547473508865E-12 0.000000000000E+00
     1.700000000000E+01-7.225000000000E+01 4.772341644328E-09-2.022035551520E+00
    -3.758817911148E-06 2.074763458222E-02 8.389353752136E-06 5.153610521317E+03
     3.887680000000E+05 2.942979335785E-07-8.331710391809E-01-6.146728992462E-08
     9.509034502255E-01 2.018437500000E+02-1.977781112213E+00-7.938902115711E-09
    -3.807301446530E-10 1.000000000000E+00 2.414000000000E+03 0.000000000000E+00
     2.000000000000E+00 0.000000000000E+00-1.071020960808E-08 1.700000000000E+01
     3.847080000000E+05 4.000000000000E+00
G08 2026 04 16 12 00 00 4.605655558407E-04-6.707523425575E-12 0.000000000000E+00
     6.300000000000E+01 6.350000000000E+01 5.563088867838E-09 7.870932158546E-01
     3.546476364136E-06 1.158995786682E-02 1.894310116768E-06 5.153703445435E+03
     3.888000000000E+05-4.656612873077E-08 1.212635027871E+00 1.229345798492E-07
     9.428153360431E-01 3.300000000000E+02 5.379705305977E-01-9.053234246402E-09
     6.143113028173E-11 1.000000000000E+00 2.414000000000E+03 0.000000000000E+00
     2.000000000000E+00 0.000000000000E+00 4.656612873077E-09 6.300000000000E+01
     3.846720000000E+05 4.000000000000E+00
G16 2026 04 16 07 59 44 2.459269016981E-04 7.048583938740E-12 0.000000000000E+00
     7.000000000000E+00 8.771875000000E+01 4.593762777230E-09-2.685491386981E-01
     4.788860678673E-06 1.499409845565E-02 1.112744212151E-05 5.153674383163E+03
     3.743840000000E+05-4.656612873077E-08 3.015365516134E-01 1.471489667892E-07
     9.585997071712E-01 1.634687500000E+02 9.331708394083E-01-8.325346784111E-09
     1.771502361613E-10 1.000000000000E+00 2.414000000000E+03 0.000000000000E+00
     2.000000000000E+00 0.000000000000E+00-1.071020960808E-08 7.000000000000E+00
     3.731880000000E+05 4.000000000000E+00
G16 2026 04 16 12 00 00 2.460284158587E-04 7.048583938740E-12 0.000000000000E+00
     9.000000000000E+00 1.123750000000E+02 4.566975947165E-09 1.834199583855E+00
     5.694106221199E-06 1.499688986223E-02 1.253932714462E-05 5.153676246643E+03
     3.888000000000E+05-3.241002559662E-07 3.014161373634E-01-1.899898052216E-07
     9.586034858886E-01 1.373750000000E+02 9.331140503913E-01-8.049978171046E-09
     3.528718413857E-10 1.000000000000E+00 2.414000000000E+03 0.000000000000E+00
     2.000000000000E+00 0.000000000000E+00-1.071020960808E-08 9.000000000000E+00
     3.846780000000E+05 4.000000000000E+00
G18 2026 04 16 10 00 00-3.754445351660E-04 9.322320693173E-12 0.000000000000E+00
     2.330000000000E+02-1.211875000000E+02 4.121600252623E-09-2.283034641694E+00
    -6.334856152534E-06 5.863743368536E-03 9.031966328621E-06 5.153633241653E+03
     3.816000000000E+05 7.450580596924E-09 2.329706434630E+00-3.166496753693E-08
     9.714074291443E-01 2.101875000000E+02-2.870585957347E+00-7.972474942725E-09
    -4.943063041274E-10 1.000000000000E+00 2.414000000000E+03 0.000000000000E+00
     2.000000000000E+00 0.000000000000E+00-8.381903171539E-09 1.001000000000E+03
     3.785460000000E+05 4.000000000000E+00
G23 2026 04 16 10 44 32 6.367880851030E-04 4.433786671143E-12 0.000000000000E+00
     2.040000000000E+02 2.146875000000E+01 3.434428772030E-09-3.054482719649E+00
     1.162290573120E-06 6.108242901973E-03 1.379102468491E-05 5.153713722229E+03
     3.842720000000E+05-1.117587089539E-08-2.946178998490E+00-5.587935447693E-09
     9.887075750448E-01 1.273750000000E+02-2.742190274980E+00-7.408880038164E-09
     5.503800683962E-10 1.000000000000E+00 2.414000000000E+03 0.000000000000E+00
     2.000000000000E+00 0.000000000000E+00-8.847564458847E-09 2.040000000000E+02
     3.785520000000E+05 4.000000000000E+00
G25 2026 04 16 10 00 00 4.296717233956E-04-2.728484105319E-12 0.000000000000E+00
     6.000000000000E+01 1.025000000000E+02 4.540546274835E-09 2.400914018952E+00
     5.062669515610E-06 1.287460862659E-02 1.241452991962E-05 5.153716699600E+03
     3.816000000000E+05 8.940696716309E-08 1.903083943085E-01-1.937150955200E-07
     9.478821996240E-01 1.278125000000E+02 1.160639586806E+00-7.863184676061E-09
     2.000083311498E-10 1.000000000000E+00 2.414000000000E+03 0.000000000000E+00
     2.000000000000E+00 0.000000000000E+00 5.587935447693E-09 6.000000000000E+01
     3.789660000000E+05 4.000000000000E+00
G26 2026 04 16 11 59 44-3.543486818671E-04-4.661160346586E-12 0.000000000000E+00
     3.000000000000E+00 8.831250000000E+01 5.009137222100E-09 2.624683084563E+00
     4.488974809647E-06 1.102270139381E-02 1.349300146103E-05 5.153751617432E+03
     3.887840000000E+05-1.117587089539E-08 1.149292317895E-01-1.452863216400E-07
     9.286433551861E-01 1.001875000000E+02 7.129299138097E-01-8.034977546209E-09
     1.746501320219E-10 1.000000000000E+00 2.414000000000E+03 0.000000000000E+00
     2.000000000000E+00 0.000000000000E+00 6.519258022308E-09 3.000000000000E+00
     3.846780000000E+05 4.000000000000E+00
G27 2026 04 16 12 00 00-1.093745231628E-04-1.659827830736E-11 0.000000000000E+00
     1.240000000000E+02 5.309375000000E+01 5.417011354552E-09 8.972624881842E-01
     2.959743142128E-06 1.437146379612E-02 2.024695277214E-06 5.153664766312E+03
     3.888000000000E+05-1.471489667892E-07 1.245065086553E+00 1.136213541031E-07
     9.518904415548E-01 3.369062500000E+02 8.944239765316E-01-9.037519306098E-09
     1.821504444400E-11 1.000000000000E+00 2.414000000000E+03 0.000000000000E+00
     2.800000000000E+00 0.000000000000E+00 2.328306436539E-09 1.240000000000E+02
     3.846720000000E+05 4.000000000000E+00
G29 2026 04 16 10 00 00-3.392300568521E-04 7.162270776462E-12 0.000000000000E+00
     3.200000000000E+01 2.281250000000E+01 5.021280585063E-09-3.202967775321E-01
     1.072883605957E-06 3.509500646032E-03 1.657754182816E-06 5.153730594635E+03
     3.816000000000E+05 3.725290298462E-09 1.334996970451E+00-7.450580596924E-08
     9.610526023956E-01 3.478750000000E+02 2.759795017980E+00-8.687861884320E-09
    -1.857220217820E-11 1.000000000000E+00 2.414000000000E+03 0.000000000000E+00
     2.000000000000E+00 0.000000000000E+00-9.778887033463E-09 3.200000000000E+01
     3.785520000000E+05 4.000000000000E+00
G31 2026 04 16 10 00 00-1.550754532218E-04 2.387423592154E-12 0.000000000000E+00
     1.000000000000E+02-7.346875000000E+01 4.848773399446E-09 2.134663567820E+00
    -3.876164555550E-06 1.081774849445E-02 1.012347638607E-05 5.153589700699E+03
     3.816000000000E+05-9.872019290924E-08-8.087015077438E-01-2.738088369370E-07
     9.546738772675E-01 1.825625000000E+02 9.448424387201E-01-8.106051935314E-09
    -5.825242644738E-10 1.000000000000E+00 2.414000000000E+03 0.000000000000E+00
     2.000000000000E+00 0.000000000000E+00-1.350417733192E-08 1.000000000000E+02
     3.786960000000E+05 4.000000000000E+00
G31 2026 04 16 12 00 00-1.550582237542E-04 2.387423592154E-12 0.000000000000E+00
     1.010000000000E+02-6.209375000000E+01 4.741268921453E-09-3.098296731375E+00
    -3.388151526451E-06 1.081647840329E-02 1.007691025734E-05 5.153591869354E+03
     3.888000000000E+05 8.381903171539E-08-8.087590545523E-01-1.955777406693E-07
     9.546701219568E-01 1.815937500000E+02 9.448515190526E-01-7.987832725295E-09
    -5.878816304868E-10 1.000000000000E+00 2.414000000000E+03 0.000000000000E+00
     2.000000000000E+00 0.000000000000E+00-1.350417733192E-08 1.010000000000E+02
     3.847080000000E+05 4.000000000000E+00
